MEAN_MOTION;ECCENTRICITY;INCLINATION;RA_OF_ASC_NODE;ARG_OF_PERICENTER;MEAN_ANOMALY;BSTAR;MEAN_MOTION_DOT;MEAN_MOTION_DDOT;TYPE
2.00551401;0.024971;54.2954;71.81;276.0266;108.4803;0;7.0E-8;0;Navigation
2.00551439;0.02497;54.296;71.7817;276.0525;243.2198;0;4.0E-8;0;Navigation
2.00551484;0.0249701;54.2964;71.7587;276.0527;286.4733;0;0;0;Navigation
2.00551554;0.0249706;54.2972;71.7176;276.0742;285.4607;0;-8.0E-8;0;Navigation
2.00551632;0.0249702;54.298;71.6765;276.0959;285.3015;0;-1.7E-7;0;Navigation
2.00551693;0.0249708;54.2986;71.6468;276.1124;85.0447;0;-2.4E-7;0;Navigation
2.00551761;0.0249698;54.2991;71.6153;276.1269;277.022;0;-3.0E-7;0;Navigation
2.00551946;0.0249698;54.3006;71.534;276.1672;260.3299;0;-3.9E-7;0;Navigation
2.00551988;0.0249699;54.3009;71.5164;276.1771;209.0141;0;-4.0E-7;0;Navigation
2.00552015;0.0249691;54.3012;71.5033;276.1854;78.8137;0;-3.9E-7;0;Navigation
2.00552082;0.0249679;54.3019;71.4749;276.2016;216.7224;0;-3.8E-7;0;Navigation
2.00552082;0.0249679;54.3019;71.4749;276.2016;216.7224;0;-3.8E-7;0;Navigation
2.00552134;0.0249675;54.3024;71.4532;276.212;236.9773;0;-3.6E-7;0;Navigation
2.00552134;0.0249675;54.3024;71.4532;276.212;236.9773;0;-3.6E-7;0;Navigation
2.00552277;0.0249663;54.3035;71.3936;276.2437;202.5753;0;-2.9E-7;0;Navigation
2.00552331;0.0249659;54.3039;71.3696;276.2529;263.6817;0;-2.6E-7;0;Navigation
2.00552376;0.0249659;54.3043;71.3497;276.2628;251.4169;0;-2.4E-7;0;Navigation
2.00552425;0.0249652;54.3047;71.3282;276.2724;269.2889;0;-2.1E-7;0;Navigation
2.00552468;0.0249641;54.305;71.3066;276.2842;289.0136;0;-1.9E-7;0;Navigation
2.00552468;0.0249641;54.305;71.3066;276.2842;289.0136;0;-1.9E-7;0;Navigation
2.00552468;0.0249641;54.305;71.3066;276.2842;289.0136;0;-1.9E-7;0;Navigation
2.00552658;0.0249618;54.3068;71.2058;276.3363;257.7272;0;-1.5E-7;0;Navigation
2.00552692;0.0249617;54.3074;71.1849;276.3465;263.0109;0;-1.6E-7;0;Navigation
2.00552726;0.0249613;54.3077;71.1633;276.3578;281.8893;0;-1.6E-7;0;Navigation
2.00552755;0.0249608;54.3081;71.1436;276.3686;268.7024;0;-1.6E-7;0;Navigation
2.00552767;0.024961;54.3082;71.134;276.3746;77.5169;0;-1.6E-7;0;Navigation
2.00552767;0.024961;54.3082;71.134;276.3746;77.5169;0;-1.6E-7;0;Navigation
2.00552767;0.024961;54.3082;71.134;276.3746;77.5169;0;-1.6E-7;0;Navigation
2.00552767;0.024961;54.3082;71.134;276.3746;77.5169;0;-1.6E-7;0;Navigation
2.00552958;0.0249559;54.3109;70.9858;276.4537;160.2006;0;-1.4E-7;0;Navigation
2.00552958;0.0249559;54.3109;70.9858;276.4537;160.2006;0;-1.4E-7;0;Navigation
2.00552987;0.0249541;54.3113;70.9567;276.4697;310.9641;0;-1.3E-7;0;Navigation
2.00552987;0.0249541;54.3113;70.9567;276.4697;310.9641;0;-1.3E-7;0;Navigation
2.00553031;0.0249531;54.312;70.9164;276.4902;296.7617;0;-1.0E-7;0;Navigation
2.00553051;0.0249528;54.3123;70.8983;276.4986;255.638;0;-8.0E-8;0;Navigation
2.00553096;0.0249524;54.3131;70.8584;276.5182;234.8095;0;-5.0E-8;0;Navigation
2.00553125;0.0249521;54.3135;70.8316;276.5306;345.7413;0;-3.0E-8;0;Navigation
2.00553192;0.0249503;54.3145;70.7745;276.5604;267.4451;0;0;0;Navigation
2.00553258;0.0249489;54.3154;70.7234;276.5849;81.984;0;0;0;Navigation
2.00553258;0.0249489;54.3154;70.7234;276.5849;81.984;0;0;0;Navigation
2.00553258;0.0249489;54.3154;70.7234;276.5849;81.984;0;0;0;Navigation
2.00553258;0.0249489;54.3154;70.7234;276.5849;81.984;0;0;0;Navigation
2.00553508;0.024943;54.318;70.5723;276.6586;210.4402;0;-2.4E-7;0;Navigation
2.00553508;0.024943;54.318;70.5723;276.6586;210.4402;0;-2.4E-7;0;Navigation
2.00553585;0.0249409;54.3187;70.532;276.6788;197.8946;0;-3.4E-7;0;Navigation
2.00553681;0.0249389;54.3195;70.4868;276.6979;269.9502;0;-4.4E-7;0;Navigation
2.0055378;0.0249372;54.3203;70.442;276.7183;334.1045;0;-5.1E-7;0;Navigation
2.00553866;0.0249356;54.321;70.4048;276.7367;266.3062;0;-5.4E-7;0;Navigation
2.00553923;0.0249346;54.3214;70.381;276.7473;325.1086;0;-5.4E-7;0;Navigation
2.00553987;0.0249344;54.3219;70.3539;276.7609;80.7588;0;-5.3E-7;0;Navigation
2.00554056;0.0249325;54.3224;70.3257;276.7751;214.2508;0;-5.2E-7;0;Navigation
2.00554056;0.0249325;54.3224;70.3257;276.7751;214.2508;0;-5.2E-7;0;Navigation
2.0055427;0.0249295;54.3239;70.2364;276.8128;341.7708;0;-4.3E-7;0;Navigation
2.00554308;0.0249286;54.3242;70.2202;276.8207;265.6826;0;-4.1E-7;0;Navigation
2.00554315;0.0249287;54.3243;70.2169;276.8214;324.0416;0;-4.1E-7;0;Navigation
2.00554441;0.0249261;54.3253;70.1591;276.8477;258.7705;0;-3.7E-7;0;Navigation
2.00554522;0.0249249;54.3259;70.1188;276.8651;246.2668;0;-3.6E-7;0;Navigation
2.00554598;0.0249227;54.3267;70.0775;276.8846;251.3759;0;-3.7E-7;0;Navigation
2.00554669;0.0249207;54.3273;70.0357;276.9041;265.1198;0;-3.8E-7;0;Navigation
2.0055473;0.024919;54.328;69.9966;276.9224;232.0345;0;-3.9E-7;0;Navigation
2.00554788;0.0249168;54.3287;69.9549;276.9426;244.3913;0;-3.9E-7;0;Navigation
2.00554788;0.0249168;54.3287;69.9549;276.9426;244.3913;0;-3.9E-7;0;Navigation
2.00554788;0.0249168;54.3287;69.9549;276.9426;244.3913;0;-3.9E-7;0;Navigation
2.00554927;0.0249131;54.3305;69.8512;276.9899;264.4635;0;-3.7E-7;0;Navigation
2.00554927;0.024912;54.3305;69.848;276.9919;321.3468;0;-3.7E-7;0;Navigation
2.00554946;0.0249081;54.3308;69.8257;277.0034;351.8014;0;-3.5E-7;0;Navigation
2.00554946;0.0249081;54.3308;69.8257;277.0034;351.8014;0;-3.5E-7;0;Navigation
2.00554975;0.0249069;54.3312;69.8002;277.0156;78.9555;0;-3.4E-7;0;Navigation
2.00555041;0.0249038;54.3321;69.7451;277.0399;326.8733;0;-2.9E-7;0;Navigation
2.00555064;0.0249034;54.3324;69.7256;277.0486;310.1358;0;-2.8E-7;0;Navigation
2.0055509;0.0249026;54.3328;69.7035;277.0591;337.265;0;-2.6E-7;0;Navigation
2.00555134;0.0249003;54.3334;69.667;277.0759;256.8862;0;-2.4E-7;0;Navigation
2.00555202;0.0248996;54.3343;69.6156;277.098;78.3803;0;-2.3E-7;0;Navigation
2.00555256;0.0248962;54.3349;69.5784;277.1148;11.7982;0;-2.5E-7;0;Navigation
2.00555285;0.0248947;54.3352;69.5589;277.1234;354.6895;0;-2.7E-7;0;Navigation
2.00555285;0.0248947;54.3352;69.5589;277.1234;354.6895;0;-2.7E-7;0;Navigation
2.0055538;0.0248913;54.3362;69.501;277.1487;289.0664;0;-3.6E-7;0;Navigation
2.00555414;0.0248905;54.3365;69.482;277.1569;263.2488;0;-4.0E-7;0;Navigation
2.00555414;0.0248905;54.3365;69.482;277.1569;263.2488;0;-4.0E-7;0;Navigation
2.00555493;0.0248883;54.3371;69.4406;277.1741;268.971;0;-5.0E-7;0;Navigation
2.00555493;0.0248883;54.3371;69.4406;277.1741;268.971;0;-5.0E-7;0;Navigation
2.0055554;0.0248872;54.3375;69.4171;277.1829;320.7883;0;-5.6E-7;0;Navigation
2.0055562;0.0248855;54.3382;69.3794;277.1992;262.1992;0;-6.4E-7;0;Navigation
2.0055562;0.0248855;54.3382;69.3794;277.1992;262.1992;0;-6.4E-7;0;Navigation
2.00555804;0.02488;54.3395;69.2973;277.2322;262.7031;0;-7.7E-7;0;Navigation
2.00555905;0.0248784;54.3402;69.2566;277.2498;256.4565;0;-7.8E-7;0;Navigation
2.00555965;0.0248765;54.3406;69.2309;277.2592;346.8312;0;-7.8E-7;0;Navigation
2.00556011;0.0248754;54.3409;69.2115;277.2677;328.1641;0;-7.7E-7;0;Navigation
2.00556066;0.0248741;54.3413;69.1892;277.277;358.4971;0;-7.5E-7;0;Navigation
2.00556113;0.0248724;54.3416;69.1698;277.2854;340.3123;0;-7.3E-7;0;Navigation
2.00556162;0.0248713;54.342;69.1502;277.2936;323.1538;0;-7.1E-7;0;Navigation
2.00556162;0.0248713;54.342;69.1502;277.2936;323.1538;0;-7.1E-7;0;Navigation
2.00556252;0.0248683;54.3426;69.1127;277.3101;262.1735;0;-6.7E-7;0;Navigation
2.00556308;0.0248673;54.3429;69.0893;277.3186;312.0199;0;-6.5E-7;0;Navigation
2.00556359;0.0248666;54.3433;69.0669;277.3277;346.0875;0;-6.4E-7;0;Navigation
2.00556397;0.0248648;54.3436;69.0502;277.335;278.8298;0;-6.3E-7;0;Navigation
2.00556397;0.0248648;54.3436;69.0502;277.335;278.8298;0;-6.3E-7;0;Navigation
2.00556536;0.0248607;54.3446;68.9835;277.3616;9.1358;0;-6.2E-7;0;Navigation
2.00556568;0.0248595;54.3449;68.9677;277.3685;287.4538;0;-6.2E-7;0;Navigation
2.00556568;0.0248595;54.3449;68.9677;277.3685;287.4538;0;-6.2E-7;0;Navigation
2.00556611;0.0248567;54.3453;68.9419;277.3789;19.5094;0;-6.2E-7;0;Navigation
2.00556641;0.0248552;54.3456;68.9253;277.3859;311.5285;0;-6.3E-7;0;Navigation
2.00556679;0.024854;54.3459;68.9031;277.3953;340.5504;0;-6.3E-7;0;Navigation
2.00556716;0.0248528;54.3463;68.8808;277.405;12.2527;0;-6.4E-7;0;Navigation
2.00556748;0.0248515;54.3466;68.8611;277.4133;357.7181;0;-6.4E-7;0;Navigation
2.00556777;0.0248504;54.3469;68.8419;277.4216;334.6252;0;-6.4E-7;0;Navigation
2.00556809;0.0248489;54.3473;68.8195;277.4309;8.4699;0;-6.4E-7;0;Navigation
2.00556809;0.0248489;54.3473;68.8195;277.4309;8.4699;0;-6.4E-7;0;Navigation
2.00556867;0.0248461;54.348;68.778;277.4484;16.3217;0;-6.3E-7;0;Navigation
2.00556893;0.0248445;54.3483;68.7586;277.4563;356.6519;0;-6.2E-7;0;Navigation
2.00556919;0.0248433;54.3486;68.7392;277.4643;337.1606;0;-6.1E-7;0;Navigation
2.00556947;0.024842;54.349;68.7169;277.4732;9.479;0;-6.0E-7;0;Navigation
2.00556989;0.024839;54.3496;68.6779;277.4878;332.392;0;-5.6E-7;0;Navigation
2.00557017;0.0248377;54.35;68.6556;277.4966;3.7046;0;-5.4E-7;0;Navigation
2.00557017;0.0248377;54.35;68.6556;277.4966;3.7046;0;-5.4E-7;0;Navigation
2.00557062;0.0248345;54.3507;68.6138;277.5126;16.3853;0;-5.0E-7;0;Navigation
2.00557087;0.0248332;54.351;68.5946;277.5202;354.742;0;-4.8E-7;0;Navigation
2.00557115;0.0248325;54.3513;68.5722;277.5294;26.2843;0;-4.7E-7;0;Navigation
2.00557139;0.0248312;54.3517;68.5525;277.5372;11.8431;0;-4.5E-7;0;Navigation
2.00557184;0.0248291;54.3522;68.5175;277.5516;266.0849;0;-4.3E-7;0;Navigation
2.00557222;0.0248276;54.3527;68.4912;277.5614;6.2246;0;-4.3E-7;0;Navigation
2.00557222;0.0248276;54.3527;68.4912;277.5614;6.2246;0;-4.3E-7;0;Navigation
2.00557279;0.0248254;54.3533;68.4525;277.5769;325.2981;0;-4.4E-7;0;Navigation
2.00557279;0.0248254;54.3533;68.4525;277.5769;325.2981;0;-4.4E-7;0;Navigation
2.00557279;0.0248254;54.3533;68.4525;277.5769;325.2981;0;-4.4E-7;0;Navigation
2.00557414;0.0248195;54.3547;68.3691;277.6081;347.4315;0;-5.6E-7;0;Navigation
2.00557449;0.0248184;54.355;68.3497;277.6156;327.3169;0;-6.0E-7;0;Navigation
2.0055749;0.0248174;54.3554;68.3273;277.6235;359.4726;0;-6.5E-7;0;Navigation
